[{"OBJECT_NAME":"YAOGAN-9 01B","OBJECT_ID":"2010-009B","EPOCH":"2026-03-09T21:36:43.133472","MEAN_MOTION":13.45689777,"ECCENTRICITY":0.05298959,"INCLINATION":63.3654,"RA_OF_ASC_NODE":254.758,"ARG_OF_PERICENTER":20.1216,"MEAN_ANOMALY":341.9863,"EPHEMERIS_TYPE":0,"CLASSIFICATION_TYPE":"U","NORAD_CAT_ID":36414,"ELEMENT_SET_NO":999,"REV_AT_EPOCH":78638,"BSTAR":7.8644801e-5,"MEAN_MOTION_DOT":1.9e-7,"MEAN_MOTION_DDOT":0},{"OBJECT_NAME":"THORAD AGENA D DEB","OBJECT_ID":"1970-025GA","EPOCH":"2026-03-09T21:06:26.162208","MEAN_MOTION":13.75345662,"ECCENTRICITY":0.00065132,"INCLINATION":100.0075,"RA_OF_ASC_NODE":189.8732,"ARG_OF_PERICENTER":90.4624,"MEAN_ANOMALY":35.0693,"EPHEMERIS_TYPE":0,"CLASSIFICATION_TYPE":"U","NORAD_CAT_ID":4934,"ELEMENT_SET_NO":999,"REV_AT_EPOCH":78272,"BSTAR":0.00090188674,"MEAN_MOTION_DOT":8.17e-6,"MEAN_MOTION_DDOT":0}]
